COMMENT,ORIGINATOR,NORAD_CAT_ID,OBJECT_NAME,OBJECT_TYPE,CLASSIFICATION_TYPE,INTLDES,EPOCH,EPOCH_MICROSECONDS,MEAN_MOTION,ECCENTRICITY,INCLINATION,RA_OF_ASC_NODE,ARG_OF_PERICENTER,MEAN_ANOMALY,EPHEMERIS_TYPE,ELEMENT_SET_NO,REV_AT_EPOCH,BSTAR,MEAN_MOTION_DOT,MEAN_MOTION_DDOT,FILE,TLE_LINE0,TLE_LINE1,TLE_LINE2,OBJECT_ID,OBJECT_NUMBER,SEMIMAJOR_AXIS,PERIOD,APOGEE,PERIGEE,DECAYED
"GENERATED VIA SPACETRACK.ORG API","18 SPCS","55096","SPACEBEE-161","PAYLOAD","U","23001CR","2023-02-07 18:08:43","651392","15.14650602","0.0017894","97.497","100.3524","92.3754","267.9527","0","999","547","0.0010589","0.00019625","0","3777976","0 SPACEBEE-161","1 55096U 23001CR  23038.75606078  .00019625  00000-0  10589-2 0  9994","2 55096  97.4970 100.3524 0017894  92.3754 267.9527 15.14650602  5471","2023-001CR","55096","6900.177","95.071","534.389","509.694","0"
"GENERATED VIA SPACETRACK.ORG API","18 SPCS","55096","SPACEBEE-161","PAYLOAD","U","23001CR","2023-02-08 03:39:30","827232","15.14668332","0.001782","97.497","100.7431","91.0717","269.2557","0","999","553","0.0010778","0.00019987","0","3778384","0 SPACEBEE-161","1 55096U 23001CR  23039.15244013  .00019987  00000-0  10778-2 0  9997","2 55096  97.4970 100.7431 0017820  91.0717 269.2557 15.14668332  5530","2023-001CR","55096","6900.123","95.070","534.284","509.692","0"
"GENERATED VIA SPACETRACK.ORG API","18 SPCS","55096","SPACEBEE-161","PAYLOAD","U","23001CR","2023-02-08 10:00:02","38464","15.14680359","0.0017844","97.4968","101.0034","90.2725","270.0552","0","999","557","0.0010996","0.00020401","0","3780324","0 SPACEBEE-161","1 55096U 23001CR  23039.41669026  .00020401  00000-0  10996-2 0  9996","2 55096  97.4968 101.0034 0017844  90.2725 270.0552 15.14680359  5578","2023-001CR","55096","6900.086","95.070","534.264","509.639","0"
"GENERATED VIA SPACETRACK.ORG API","18 SPCS","55096","SPACEBEE-161","PAYLOAD","U","23001CR","2023-02-08 17:55:40","780992","15.14699201","0.0017795","97.4964","101.3289","89.2972","271.0299","0","999","562","0.0012091","0.00022457","0","3780893","0 SPACEBEE-161","1 55096U 23001CR  23039.74699978  .00022457  00000-0  12091-2 0  9992","2 55096  97.4964 101.3289 0017795  89.2972 271.0299 15.14699201  5627","2023-001CR","55096","6900.029","95.068","534.173","509.615","0"
"GENERATED VIA SPACETRACK.ORG API","18 SPCS","55096","SPACEBEE-161","PAYLOAD","U","23001CR","2023-02-09 03:26:26","931264","15.14717432","0.0017722","97.4963","101.7196","87.8604","272.4657","0","999","568","0.0012625","0.00023466","0","3782313","0 SPACEBEE-161","1 55096U 23001CR  23040.14336726  .00023466  00000-0  12625-2 0  9991","2 55096  97.4963 101.7196 0017722  87.8604 272.4657 15.14717432  5689","2023-001CR","55096","6899.974","95.067","534.067","509.610","0"
"GENERATED VIA SPACETRACK.ORG API","18 SPCS","55096","SPACEBEE-161","PAYLOAD","U","23001CR","2023-02-09 14:32:20","179968","15.14740674","0.0017636","97.4962","102.1752","86.5023","273.8226","0","999","575","0.001288","0.00023958","0","3782798","0 SPACEBEE-161","1 55096U 23001CR  23040.60578912  .00023958  00000-0  12880-2 0  9996","2 55096  97.4962 102.1752 0017636  86.5023 273.8226 15.14740674  5755","2023-001CR","55096","6899.903","95.066","533.937","509.599","0"
"GENERATED VIA SPACETRACK.ORG API","18 SPCS","55096","SPACEBEE-161","PAYLOAD","U","23001CR","2023-02-09 14:32:20","179968","15.14740674","0.0017636","97.4962","102.1752","86.5023","273.8226","0","999","575","0.001288","0.00023958","0","3783241","0 SPACEBEE-161","1 55096U 23001CR  23040.60578912  .00023958  00000-0  12880-2 0  9996","2 55096  97.4962 102.1752 0017636  86.5023 273.8226 15.14740674  5755","2023-001CR","55096","6899.903","95.066","533.937","509.599","0"
"GENERATED VIA SPACETRACK.ORG API","18 SPCS","55096","SPACEBEE-161","PAYLOAD","U","23001CR","2023-02-10 03:13:20","419968","15.14765774","0.0017631","97.4963","102.6969","84.6164","275.7079","0","999","583","0.0014035","0.00026138","0","3784184","0 SPACEBEE-161","1 55096U 23001CR  23041.13426412  .00026138  00000-0  14035-2 0  9999","2 55096  97.4963 102.6969 0017631  84.6164 275.7079 15.14765774  5835","2023-001CR","55096","6899.827","95.064","533.857","509.527","0"
"GENERATED VIA SPACETRACK.ORG API","18 SPCS","55096","SPACEBEE-161","PAYLOAD","U","23001CR","2023-02-10 22:14:49","97760","15.14807655","0.0017615","97.4957","103.4779","82.1577","278.1654","0","999","595","0.001448","0.00027004","0","3785326","0 SPACEBEE-161","1 55096U 23001CR  23041.92695715  .00027004  00000-0  14480-2 0  9997","2 55096  97.4957 103.4779 0017615  82.1577 278.1654 15.14807655  5953","2023-001CR","55096","6899.700","95.062","533.718","509.411","0"
"GENERATED VIA SPACETRACK.ORG API","18 SPCS","55096","SPACEBEE-161","PAYLOAD","U","23001CR","2023-02-11 03:00:10","961568","15.14820504","0.0017561","97.4955","103.6733","81.7586","278.5637","0","999","598","0.0015626","0.00029165","0","3786144","0 SPACEBEE-161","1 55096U 23001CR  23042.12512687  .00029165  00000-0  15626-2 0  9999","2 55096  97.4955 103.6733 0017561  81.7586 278.5637 15.14820504  5984","2023-001CR","55096","6899.661","95.061","533.642","509.409","0"
"GENERATED VIA SPACETRACK.ORG API","18 SPCS","55096","SPACEBEE-161","PAYLOAD","U","23001CR","2023-02-12 02:46:58","464480","15.14872848","0.0017525","97.4956","104.6498","78.6328","281.6872","0","999","613","0.0013959","0.00026074","0","3787048","0 SPACEBEE-161","1 55096U 23001CR  23043.11595445  .00026074  00000-0  13959-2 0  9995","2 55096  97.4956 104.6498 0017525  78.6328 281.6872 15.14872848  6135","2023-001CR","55096","6899.502","95.057","533.458","509.275","0"
"GENERATED VIA SPACETRACK.ORG API","18 SPCS","55096","SPACEBEE-161","PAYLOAD","U","23001CR","2023-02-12 02:46:58","464480","15.14872848","0.0017525","97.4956","104.6498","78.6328","281.6872","0","999","613","0.0013959","0.00026074","0","3787692","0 SPACEBEE-161","1 55096U 23001CR  23043.11595445  .00026074  00000-0  13959-2 0  9995","2 55096  97.4956 104.6498 0017525  78.6328 281.6872 15.14872848  6135","2023-001CR","55096","6899.502","95.057","533.458","509.275","0"
"GENERATED VIA SPACETRACK.ORG API","18 SPCS","55096","SPACEBEE-161","PAYLOAD","U","23001CR","2023-02-13 10:29:17","221632","15.14940346","0.0017474","97.4958","105.9509","74.1757","286.14","0","999","633","0.0013163","0.00024625","0","3788946","0 SPACEBEE-161","1 55096U 23001CR  23044.43700488  .00024625  00000-0  13163-2 0  9993","2 55096  97.4958 105.9509 0017474  74.1757 286.1400 15.14940346  6332","2023-001CR","55096","6899.297","95.053","533.218","509.106","0"
"GENERATED VIA SPACETRACK.ORG API","18 SPCS","55096","SPACEBEE-161","PAYLOAD","U","23001CR","2023-02-13 10:29:17","221632","15.14940346","0.0017474","97.4958","105.9509","74.1757","286.14","0","999","633","0.0013163","0.00024625","0","3789366","0 SPACEBEE-161","1 55096U 23001CR  23044.43700488  .00024625  00000-0  13163-2 0  9993","2 55096  97.4958 105.9509 0017474  74.1757 286.1400 15.14940346  6332","2023-001CR","55096","6899.297","95.053","533.218","509.106","0"
"GENERATED VIA SPACETRACK.ORG API","18 SPCS","55096","SPACEBEE-161","PAYLOAD","U","23001CR","2023-02-14 10:15:58","168512","15.14986396","0.0017393","97.496","106.9283","70.7486","289.5626","0","999","648","0.0013263","0.00024844","0","3791349","0 SPACEBEE-161","1 55096U 23001CR  23045.42775658  .00024844  00000-0  13263-2 0  9998","2 55096  97.4960 106.9283 0017393  70.7486 289.5626 15.14986396  6484","2023-001CR","55096","6899.157","95.050","533.022","509.022","0"
"GENERATED VIA SPACETRACK.ORG API","18 SPCS","55096","SPACEBEE-161","PAYLOAD","U","23001CR","2023-02-15 03:42:10","570464","15.15017591","0.0017506","97.4962","107.6457","68.6491","291.6607","0","999","659","0.0011755","0.00022024","0","3792510","0 SPACEBEE-161","1 55096U 23001CR  23046.15428901  .00022024  00000-0  11755-2 0  9997","2 55096  97.4962 107.6457 0017506  68.6491 291.6607 15.15017591  6593","2023-001CR","55096","6899.062","95.048","533.005","508.850","0"
"GENERATED VIA SPACETRACK.ORG API","18 SPCS","55096","SPACEBEE-161","PAYLOAD","U","23001CR","2023-02-15 10:02:36","535488","15.15031213","0.0017472","97.4963","107.9064","67.8404","292.468","0","999","663","0.0012883","0.0002416","0","3793706","0 SPACEBEE-161","1 55096U 23001CR  23046.41847842  .00024160  00000-0  12883-2 0  9991","2 55096  97.4963 107.9064 0017472  67.8404 292.4680 15.15031213  6630","2023-001CR","55096","6899.021","95.048","532.940","508.832","0"
"GENERATED VIA SPACETRACK.ORG API","18 SPCS","55096","SPACEBEE-161","PAYLOAD","U","23001CR","2023-02-15 14:47:55","853088","15.15046646","0.0017447","97.4963","108.1018","67.2474","293.06","0","999","666","0.0015871","0.00029814","0","3795153","0 SPACEBEE-161","1 55096U 23001CR  23046.61661867  .00029814  00000-0  15871-2 0  9995","2 55096  97.4963 108.1018 0017447  67.2474 293.0600 15.15046646  6663","2023-001CR","55096","6898.974","95.047","532.876","508.802","0"
"GENERATED VIA SPACETRACK.ORG API","18 SPCS","55096","SPACEBEE-161","PAYLOAD","U","23001CR","2023-02-16 03:28:46","748064","15.15075664","0.0017398","97.4961","108.623","65.3495","294.9547","0","999","674","0.0015774","0.00029654","0","3796170","0 SPACEBEE-161","1 55096U 23001CR  23047.14498551  .00029654  00000-0  15774-2 0  9996","2 55096  97.4961 108.6230 0017398  65.3495 294.9547 15.15075664  6740","2023-001CR","55096","6898.886","95.045","532.754","508.748","0"
"GENERATED VIA SPACETRACK.ORG API","18 SPCS","55096","SPACEBEE-161","PAYLOAD","U","23001CR","2023-02-16 03:28:46","748064","15.15075664","0.0017398","97.4961","108.623","65.3495","294.9547","0","999","674","0.0015774","0.00029654","0","3798293","0 SPACEBEE-161","1 55096U 23001CR  23047.14498551  .00029654  00000-0  15774-2 0  9996","2 55096  97.4961 108.6230 0017398  65.3495 294.9547 15.15075664  6740","2023-001CR","55096","6898.886","95.045","532.754","508.748","0"
